[{"OBJECT_NAME":"ONEWEB-0034","OBJECT_ID":"2020-020AG","EPOCH":"2025-11-08T00:25:08.658048","MEAN_MOTION":13.11413343,"ECCENTRICITY":0.0001645,"INCLINATION":87.8866,"RA_OF_ASC_NODE":65.0962,"ARG_OF_PERICENTER":102.9158,"MEAN_ANOMALY":257.2154,"EPHEMERIS_TYPE":0,"CLASSIFICATION_TYPE":"U","NORAD_CAT_ID":45454,"ELEMENT_SET_NO":999,"REV_AT_EPOCH":27360,"BSTAR":0.00020547,"MEAN_MOTION_DOT":8.6e-7,"MEAN_MOTION_DDOT":0},{"OBJECT_NAME":"ONEWEB-0060","OBJECT_ID":"2020-020AH","EPOCH":"2025-11-08T01:33:31.400064","MEAN_MOTION":13.11417826,"ECCENTRICITY":0.000211,"INCLINATION":87.8852,"RA_OF_ASC_NODE":65.1076,"ARG_OF_PERICENTER":132.0064,"MEAN_ANOMALY":228.1244,"EPHEMERIS_TYPE":0,"CLASSIFICATION_TYPE":"U","NORAD_CAT_ID":45455,"ELEMENT_SET_NO":999,"REV_AT_EPOCH":27356,"BSTAR":0.00052447,"MEAN_MOTION_DOT":1.99e-6,"MEAN_MOTION_DDOT":0},{"OBJECT_NAME":"ONEWEB-0086","OBJECT_ID":"2020-020AJ","EPOCH":"2025-11-07T17:43:30.018432","MEAN_MOTION":13.11417491,"ECCENTRICITY":0.0002295,"INCLINATION":87.8863,"RA_OF_ASC_NODE":65.1484,"ARG_OF_PERICENTER":113.0494,"MEAN_ANOMALY":247.0876,"EPHEMERIS_TYPE":0,"CLASSIFICATION_TYPE":"U","NORAD_CAT_ID":45456,"ELEMENT_SET_NO":999,"REV_AT_EPOCH":27358,"BSTAR":-0.0019872,"MEAN_MOTION_DOT":-6.92e-6,"MEAN_MOTION_DDOT":0},{"OBJECT_NAME":"ONEWEB-0088","OBJECT_ID":"2020-020AK","EPOCH":"2025-11-08T00:31:14.897280","MEAN_MOTION":13.11417053,"ECCENTRICITY":0.000147,"INCLINATION":87.8876,"RA_OF_ASC_NODE":65.0436,"ARG_OF_PERICENTER":103.457,"MEAN_ANOMALY":256.6721,"EPHEMERIS_TYPE":0,"CLASSIFICATION_TYPE":"U","NORAD_CAT_ID":45457,"ELEMENT_SET_NO":999,"REV_AT_EPOCH":27355,"BSTAR":-0.00021714,"MEAN_MOTION_DOT":-6.4e-7,"MEAN_MOTION_DDOT":0},{"OBJECT_NAME":"ONEWEB-0102","OBJECT_ID":"2020-100A","EPOCH":"2025-11-07T23:17:54.478752","MEAN_MOTION":13.12442768,"ECCENTRICITY":0.0001879,"INCLINATION":87.8972,"RA_OF_ASC_NODE":34.633,"ARG_OF_PERICENTER":96.7677,"MEAN_ANOMALY":263.3665,"EPHEMERIS_TYPE":0,"CLASSIFICATION_TYPE":"U","NORAD_CAT_ID":47258,"ELEMENT_SET_NO":999,"REV_AT_EPOCH":23571,"BSTAR":-0.00039155,"MEAN_MOTION_DOT":-1.28e-6,"MEAN_MOTION_DDOT":0},{"OBJECT_NAME":"ONEWEB-0109","OBJECT_ID":"2020-100B","EPOCH":"2025-11-07T23:29:35.067840","MEAN_MOTION":13.12443441,"ECCENTRICITY":0.0001844,"INCLINATION":87.8972,"RA_OF_ASC_NODE":34.5989,"ARG_OF_PERICENTER":99.3765,"MEAN_ANOMALY":260.7572,"EPHEMERIS_TYPE":0,"CLASSIFICATION_TYPE":"U","NORAD_CAT_ID":47259,"ELEMENT_SET_NO":999,"REV_AT_EPOCH":23554,"BSTAR":0.00044931,"MEAN_MOTION_DOT":1.74e-6,"MEAN_MOTION_DDOT":0},{"OBJECT_NAME":"ONEWEB-0110","OBJECT_ID":"2020-100C","EPOCH":"2025-11-08T03:46:31.069056","MEAN_MOTION":13.12443123,"ECCENTRICITY":0.0001909,"INCLINATION":87.898,"RA_OF_ASC_NODE":34.5478,"ARG_OF_PERICENTER":106.7234,"MEAN_ANOMALY":253.4104,"EPHEMERIS_TYPE":0,"CLASSIFICATION_TYPE":"U","NORAD_CAT_ID":47260,"ELEMENT_SET_NO":999,"REV_AT_EPOCH":23573,"BSTAR":0.00089717,"MEAN_MOTION_DOT":3.35e-6,"MEAN_MOTION_DDOT":0},{"OBJECT_NAME":"ONEWEB-0111","OBJECT_ID":"2020-100D","EPOCH":"2025-11-08T04:30:52.633152","MEAN_MOTION":13.12442105,"ECCENTRICITY":0.0001779,"INCLINATION":87.8974,"RA_OF_ASC_NODE":34.559,"ARG_OF_PERICENTER":100.7489,"MEAN_ANOMALY":259.384,"EPHEMERIS_TYPE":0,"CLASSIFICATION_TYPE":"U","NORAD_CAT_ID":47261,"ELEMENT_SET_NO":999,"REV_AT_EPOCH":23557,"BSTAR":-0.00079212,"MEAN_MOTION_DOT":-2.72e-6,"MEAN_MOTION_DDOT":0},{"OBJECT_NAME":"ONEWEB-0114","OBJECT_ID":"2020-100E","EPOCH":"2025-11-07T16:26:48.772608","MEAN_MOTION":13.12443878,"ECCENTRICITY":0.0001868,"INCLINATION":87.8985,"RA_OF_ASC_NODE":34.6536,"ARG_OF_PERICENTER":90.6356,"MEAN_ANOMALY":269.4987,"EPHEMERIS_TYPE":0,"CLASSIFICATION_TYPE":"U","NORAD_CAT_ID":47262,"ELEMENT_SET_NO":999,"REV_AT_EPOCH":23546,"BSTAR":0.0013072,"MEAN_MOTION_DOT":4.83e-6,"MEAN_MOTION_DDOT":0},{"OBJECT_NAME":"ONEWEB-0117","OBJECT_ID":"2020-100F","EPOCH":"2025-11-07T23:34:15.664800","MEAN_MOTION":13.12441959,"ECCENTRICITY":0.0001755,"INCLINATION":87.8972,"RA_OF_ASC_NODE":34.5921,"ARG_OF_PERICENTER":102.2807,"MEAN_ANOMALY":257.8518,"EPHEMERIS_TYPE":0,"CLASSIFICATION_TYPE":"U","NORAD_CAT_ID":47263,"ELEMENT_SET_NO":999,"REV_AT_EPOCH":23551,"BSTAR":0.00070047,"MEAN_MOTION_DOT":2.65e-6,"MEAN_MOTION_DDOT":0},{"OBJECT_NAME":"ONEWEB-0118","OBJECT_ID":"2020-100G","EPOCH":"2025-11-07T22:31:11.311104","MEAN_MOTION":13.12441856,"ECCENTRICITY":0.0001554,"INCLINATION":87.8975,"RA_OF_ASC_NODE":34.5996,"ARG_OF_PERICENTER":91.2818,"MEAN_ANOMALY":268.8489,"EPHEMERIS_TYPE":0,"CLASSIFICATION_TYPE":"U","NORAD_CAT_ID":47264,"ELEMENT_SET_NO":999,"REV_AT_EPOCH":23570,"BSTAR":-0.00019186,"MEAN_MOTION_DOT":-5.6e-7,"MEAN_MOTION_DDOT":0},{"OBJECT_NAME":"ONEWEB-0119","OBJECT_ID":"2020-100H","EPOCH":"2025-11-08T04:40:14.094048","MEAN_MOTION":13.12443342,"ECCENTRICITY":0.0001781,"INCLINATION":87.8975,"RA_OF_ASC_NODE":34.5855,"ARG_OF_PERICENTER":101.2687,"MEAN_ANOMALY":258.8641,"EPHEMERIS_TYPE":0,"CLASSIFICATION_TYPE":"U","NORAD_CAT_ID":47265,"ELEMENT_SET_NO":999,"REV_AT_EPOCH":23571,"BSTAR":-0.00063521,"MEAN_MOTION_DOT":-2.16e-6,"MEAN_MOTION_DDOT":0},{"OBJECT_NAME":"ONEWEB-0120","OBJECT_ID":"2020-100J","EPOCH":"2025-11-08T03:23:22.134624","MEAN_MOTION":13.12444397,"ECCENTRICITY":0.0001824,"INCLINATION":87.8968,"RA_OF_ASC_NODE":34.5984,"ARG_OF_PERICENTER":97.7867,"MEAN_ANOMALY":262.3468,"EPHEMERIS_TYPE":0,"CLASSIFICATION_TYPE":"U","NORAD_CAT_ID":47266,"ELEMENT_SET_NO":999,"REV_AT_EPOCH":23573,"BSTAR":0.0012174,"MEAN_MOTION_DOT":4.51e-6,"MEAN_MOTION_DDOT":0},{"OBJECT_NAME":"ONEWEB-0121","OBJECT_ID":"2020-100K","EPOCH":"2025-11-08T03:06:48.775680","MEAN_MOTION":13.12443511,"ECCENTRICITY":0.000183,"INCLINATION":87.8971,"RA_OF_ASC_NODE":34.5663,"ARG_OF_PERICENTER":105.6037,"MEAN_ANOMALY":254.5294,"EPHEMERIS_TYPE":0,"CLASSIFICATION_TYPE":"U","NORAD_CAT_ID":47267,"ELEMENT_SET_NO":999,"REV_AT_EPOCH":23564,"BSTAR":0.000561,"MEAN_MOTION_DOT":2.15e-6,"MEAN_MOTION_DDOT":0},{"OBJECT_NAME":"ONEWEB-0122","OBJECT_ID":"2020-100L","EPOCH":"2025-11-07T23:20:02.659200","MEAN_MOTION":13.12443424,"ECCENTRICITY":0.0001907,"INCLINATION":87.8975,"RA_OF_ASC_NODE":34.6004,"ARG_OF_PERICENTER":100.6896,"MEAN_ANOMALY":259.4447,"EPHEMERIS_TYPE":0,"CLASSIFICATION_TYPE":"U","NORAD_CAT_ID":47268,"ELEMENT_SET_NO":999,"REV_AT_EPOCH":23553,"BSTAR":-1.9328e-5,"MEAN_MOTION_DOT":6.0e-8,"MEAN_MOTION_DDOT":0},{"OBJECT_NAME":"ONEWEB-0123","OBJECT_ID":"2020-100M","EPOCH":"2025-11-07T15:54:05.143392","MEAN_MOTION":13.12442068,"ECCENTRICITY":0.0001634,"INCLINATION":87.8975,"RA_OF_ASC_NODE":34.6893,"ARG_OF_PERICENTER":100.4479,"MEAN_ANOMALY":259.6833,"EPHEMERIS_TYPE":0,"CLASSIFICATION_TYPE":"U","NORAD_CAT_ID":47269,"ELEMENT_SET_NO":999,"REV_AT_EPOCH":23563,"BSTAR":-0.00032293,"MEAN_MOTION_DOT":-1.03e-6,"MEAN_MOTION_DDOT":0},{"OBJECT_NAME":"ONEWEB-0124","OBJECT_ID":"2020-100N","EPOCH":"2025-11-08T04:26:12.285024","MEAN_MOTION":13.12441453,"ECCENTRICITY":0.0001683,"INCLINATION":87.8976,"RA_OF_ASC_NODE":34.5895,"ARG_OF_PERICENTER":107.2721,"MEAN_ANOMALY":252.8592,"EPHEMERIS_TYPE":0,"CLASSIFICATION_TYPE":"U","NORAD_CAT_ID":47270,"ELEMENT_SET_NO":999,"REV_AT_EPOCH":23558,"BSTAR":-0.00088251,"MEAN_MOTION_DOT":-3.05e-6,"MEAN_MOTION_DDOT":0}]
