ONEWEB-0034             
1 45454U 20020AG  25312.01746132  .00000086  00000+0  20547-3 0  9997
2 45454  87.8866  65.0962 0001645 102.9158 257.2154 13.11413343273605
ONEWEB-0060             
1 45455U 20020AH  25312.06494676  .00000199  00000+0  52447-3 0  9995
2 45455  87.8852  65.1076 0002110 132.0064 228.1244 13.11417826273568
ONEWEB-0086             
1 45456U 20020AJ  25311.73854188 -.00000692  00000+0 -19872-2 0  9991
2 45456  87.8863  65.1484 0002295 113.0494 247.0876 13.11417491273585
ONEWEB-0088             
1 45457U 20020AK  25312.02170020 -.00000064  00000+0 -21714-3 0  9993
2 45457  87.8876  65.0436 0001470 103.4570 256.6721 13.11417053273554
ONEWEB-0102             
1 47258U 20100A   25311.97076943 -.00000128  00000+0 -39155-3 0  9994
2 47258  87.8972  34.6330 0001879  96.7677 263.3665 13.12442768235712
ONEWEB-0109             
1 47259U 20100B   25311.97887810  .00000174  00000+0  44931-3 0  9995
2 47259  87.8972  34.5989 0001844  99.3765 260.7572 13.12443441235549
ONEWEB-0110             
1 47260U 20100C   25312.15730404  .00000335  00000+0  89717-3 0  9994
2 47260  87.8980  34.5478 0001909 106.7234 253.4104 13.12443123235737
ONEWEB-0111             
1 47261U 20100D   25312.18810918 -.00000272  00000+0 -79212-3 0  9998
2 47261  87.8974  34.5590 0001779 100.7489 259.3840 13.12442105235570
ONEWEB-0114             
1 47262U 20100E   25311.68528672  .00000483  00000+0  13072-2 0  9999
2 47262  87.8985  34.6536 0001868  90.6356 269.4987 13.12443878235463
ONEWEB-0117             
1 47263U 20100F   25311.98212575  .00000265  00000+0  70047-3 0  9999
2 47263  87.8972  34.5921 0001755 102.2807 257.8518 13.12441959235518
ONEWEB-0118             
1 47264U 20100G   25311.93832536 -.00000056  00000+0 -19186-3 0  9997
2 47264  87.8975  34.5996 0001554  91.2818 268.8489 13.12441856235706
ONEWEB-0119             
1 47265U 20100H   25312.19460757 -.00000216  00000+0 -63521-3 0  9999
2 47265  87.8975  34.5855 0001781 101.2687 258.8641 13.12443342235711
ONEWEB-0120             
1 47266U 20100J   25312.14122841  .00000451  00000+0  12174-2 0  9990
2 47266  87.8968  34.5984 0001824  97.7867 262.3468 13.12444397235734
ONEWEB-0121             
1 47267U 20100K   25312.12973120  .00000215  00000+0  56100-3 0  9999
2 47267  87.8971  34.5663 0001830 105.6037 254.5294 13.12443511235645
ONEWEB-0122             
1 47268U 20100L   25311.97225300  .00000006  00000+0 -19328-4 0  9993
2 47268  87.8975  34.6004 0001907 100.6896 259.4447 13.12443424235538
ONEWEB-0123             
1 47269U 20100M   25311.66255953 -.00000103  00000+0 -32293-3 0  9991
2 47269  87.8975  34.6893 0001634 100.4479 259.6833 13.12442068235632
ONEWEB-0124             
1 47270U 20100N   25312.18486441 -.00000305  00000+0 -88251-3 0  9998
2 47270  87.8976  34.5895 0001683 107.2721 252.8592 13.12441453235583
